SKYSAT-C1               
1 41601U 16040C   26155.64461160  .00009973  00000+0  28577-3 0  9999
2 41601  96.9565 188.0459 0004309  82.8973 277.2762 15.36078665555940
LAPAN-A3                
1 41603U 16040E   26155.98545618  .00003919  00000+0  12496-3 0  9996
2 41603  97.1488 152.5332 0011999  64.6346 295.6138 15.33025285552945
GAOFEN-3                
1 41727U 16049A   26155.94281569  .00000025  00000+0  20639-4 0  9994
2 41727  98.4010 163.9136 0001140  97.5753 262.5566 14.42213684516881
SKYSAT-C4               
1 41771U 16058B   26155.60083806  .00018480  00000+0  35272-3 0  9992
2 41771  96.9178 177.9032 0001014  76.6548 283.4816 15.48178997543523
SKYSAT-C5               
1 41772U 16058C   26155.90866024  .00008847  00000+0  26871-3 0  9998
2 41772  97.0472 197.0980 0002446  16.5803 343.5521 15.34287933541867
SKYSAT-C2               
1 41773U 16058D   26155.60455621  .00013526  00000+0  32133-3 0  9991
2 41773  97.0170 178.1756 0005223  97.1315 263.0527 15.41772175543110
SKYSAT-C3               
1 41774U 16058E   26155.63723531  .00023453  00000+0  39099-3 0  9991
2 41774  96.9013 186.9718 0002145  81.3848 278.7649 15.51982831544163
ALSAT-1B                
1 41785U 16059C   26155.93877582  .00000768  00000+0  12898-3 0  9995
2 41785  97.7750 165.2313 0007708 267.0455  92.9871 14.72266550518776
PATHFINDER 1            
1 41787U 16059E   26155.59193392  .00000747  00000+0  13888-3 0  9996
2 41787  97.8166 155.4368 0027053 245.2808 114.5581 14.67648560517863
SCATSAT 1               
1 41790U 16059H   26155.63394471  .00001362  00000+0  18549-3 0  9999
2 41790  98.1196 219.2704 0053309 288.9518  70.5920 14.79499457 99733
GOKTURK 1A              
1 41875U 16073A   26156.00138816  .00000336  00000+0  75139-4 0  9999
2 41875  98.1265  50.8665 0001459  76.7680 283.3684 14.62765181507042
RESOURCESAT-2A          
1 41877U 16074A   26155.89467419  .00000317  00000+0  16477-3 0  9990
2 41877  98.7525 229.4990 0003268 106.3018 253.8519 14.21612812492554
CARTOSAT-2D             
1 41948U 17008A   26155.77623277 -.00002376  00000+0 -10973-3 0  9994
2 41948  97.4117 215.3117 0003841 296.6092  63.4749 15.19226465515697
SENTINEL-2B             
1 42063U 17013A   26155.89978069  .00000120  00000+0  62436-4 0  9999
2 42063  98.5691 230.8470 0001215  83.4662 276.6659 14.30813158482882
CARTOSAT-2E             
1 42767U 17036C   26155.92552955  .00003574  00000+0  17295-3 0  9999
2 42767  97.4276 215.9295 0003509  10.6370 349.4938 15.19219423496286
FORMOSAT-5              
1 42920U 17049A   26155.91533390  .00000227  00000+0  68513-4 0  9997
2 42920  98.2254 231.4975 0012583 118.2673 241.9794 14.50894183464897
SENTINEL-5P             
1 42969U 17064A   26155.72585020  .00000079  00000+0  58429-4 0  9993
2 42969  98.7922  97.9461 0001004  81.2736 278.8553 14.19516785447793
SKYSAT-C11              
1 42987U 17068A   26155.46522134  .00030496  00000+0  41977-3 0  9990
2 42987  97.4344 303.7498 0001220  89.5801 270.5594 15.57213211481264
SKYSAT-C10              
1 42988U 17068B   26155.18539941  .00010395  00000+0  31431-3 0  9994
2 42988  97.4496 291.9093 0001340  90.5092 269.6305 15.34404874480360
SKYSAT-C9               
1 42989U 17068C   26155.19038147  .00014971  00000+0  36175-3 0  9992
2 42989  97.4417 292.7260 0008708 175.2134 184.9197 15.41226215480752
SKYSAT-C8               
1 42990U 17068D   26154.65543428  .00011964  00000+0  33597-3 0  9991
2 42990  97.4513 291.1227 0001587 100.5716 259.5707 15.36695849480238
SKYSAT-C7               
1 42991U 17068E   26154.32299353  .00012311  00000+0  34606-3 0  9990
2 42991  97.4524 291.7746 0006811 147.4751 212.6913 15.36634585480247
SKYSAT-C6               
1 42992U 17068F   26154.84043350  .00010246  00000+0  31167-3 0  9996
2 42992  97.4560 292.3173 0002707 163.5662 196.5669 15.34215986480278
CARTOSAT-2F             
1 43111U 18004A   26155.95747411  .00005113  00000+0  24563-3 0  9992
2 43111  97.4791 215.7109 0000310  12.0657 348.0585 15.19276937465478
GAOFEN-1 02             
1 43259U 18031A   26155.96426551  .00000916  00000+0  13904-3 0  9998
2 43259  98.0528 218.5247 0004489  60.6842 299.4816 14.76464335440894
GAOFEN-1 03             
1 43260U 18031B   26155.94241017  .00000884  00000+0  13451-3 0  9991
2 43260  98.0526 218.3628 0003791 103.6789 256.4843 14.76451282440887
GAOFEN-1 04             
1 43262U 18031D   26155.91815991  .00000437  00000+0  70225-4 0  9995
2 43262  98.0529 218.5276 0002196  94.0088 266.1373 14.76459494440874
SENTINEL-3B             
1 43437U 18039A   26155.63646008  .00000150  00000+0  80159-4 0  9996
2 43437  98.6251 223.3483 0000956  75.6484 284.4803 14.26738215422335
GAOFEN-5 01             
1 43461U 18043A   26154.49766817  .00000391  00000+0  90445-4 0  9998
2 43461  98.4563 125.7972 0002900 108.1077 252.0439 14.60595182429699
GAOFEN-6                
1 43484U 18048A   26155.94136097  .00000885  00000+0  13361-3 0  9999
2 43484  97.7760 219.0740 0011114 208.9968 151.0626 14.76618157431582
